[{"OBJECT_NAME":"IRIDIUM 33 DEB","OBJECT_ID":"1997-051GC","EPOCH":"2026-03-28T09:29:12.675840","MEAN_MOTION":14.43403487,"ECCENTRICITY":0.00321687,"INCLINATION":86.3447,"RA_OF_ASC_NODE":326.9124,"ARG_OF_PERICENTER":138.0659,"MEAN_ANOMALY":39.8069,"EPHEMERIS_TYPE":0,"CLASSIFICATION_TYPE":"U","NORAD_CAT_ID":34487,"ELEMENT_SET_NO":999,"REV_AT_EPOCH":89772,"BSTAR":0.00017577307,"MEAN_MOTION_DOT":6.17e-6,"MEAN_MOTION_DDOT":0},{"OBJECT_NAME":"IRIDIUM 33 DEB","OBJECT_ID":"1997-051GH","EPOCH":"2026-03-28T07:41:22.102944","MEAN_MOTION":14.28060849,"ECCENTRICITY":0.0181058,"INCLINATION":86.4698,"RA_OF_ASC_NODE":291.8742,"ARG_OF_PERICENTER":258.6964,"MEAN_ANOMALY":227.314,"EPHEMERIS_TYPE":0,"CLASSIFICATION_TYPE":"U","NORAD_CAT_ID":34492,"ELEMENT_SET_NO":999,"REV_AT_EPOCH":86564,"BSTAR":0.0023385,"MEAN_MOTION_DOT":6.939e-5,"MEAN_MOTION_DDOT":0},{"OBJECT_NAME":"IRIDIUM 33 DEB","OBJECT_ID":"1997-051GN","EPOCH":"2026-03-28T05:21:09.351360","MEAN_MOTION":14.27864199,"ECCENTRICITY":0.00801895,"INCLINATION":86.2831,"RA_OF_ASC_NODE":7.3279,"ARG_OF_PERICENTER":0.0866,"MEAN_ANOMALY":152.3883,"EPHEMERIS_TYPE":0,"CLASSIFICATION_TYPE":"U","NORAD_CAT_ID":34497,"ELEMENT_SET_NO":999,"REV_AT_EPOCH":88388,"BSTAR":0.00080483762,"MEAN_MOTION_DOT":2.078e-5,"MEAN_MOTION_DDOT":0},{"OBJECT_NAME":"IRIDIUM 33 DEB","OBJECT_ID":"1997-051GZ","EPOCH":"2026-03-28T09:14:33.251712","MEAN_MOTION":14.3924651,"ECCENTRICITY":0.00632007,"INCLINATION":86.3683,"RA_OF_ASC_NODE":57.7902,"ARG_OF_PERICENTER":184.2888,"MEAN_ANOMALY":175.7778,"EPHEMERIS_TYPE":0,"CLASSIFICATION_TYPE":"U","NORAD_CAT_ID":34508,"ELEMENT_SET_NO":999,"REV_AT_EPOCH":88828,"BSTAR":0.00094013067,"MEAN_MOTION_DOT":3.003e-5,"MEAN_MOTION_DDOT":0},{"OBJECT_NAME":"IRIDIUM 33 DEB","OBJECT_ID":"1997-051HN","EPOCH":"2026-03-28T10:40:54.401376","MEAN_MOTION":14.64918972,"ECCENTRICITY":0.00012125,"INCLINATION":86.3823,"RA_OF_ASC_NODE":343.969,"ARG_OF_PERICENTER":307.3782,"MEAN_ANOMALY":52.7321,"EPHEMERIS_TYPE":0,"CLASSIFICATION_TYPE":"U","NORAD_CAT_ID":34521,"ELEMENT_SET_NO":999,"REV_AT_EPOCH":90019,"BSTAR":0.00119501,"MEAN_MOTION_DOT":6.412e-5,"MEAN_MOTION_DDOT":0},{"OBJECT_NAME":"IRIDIUM 33 DEB","OBJECT_ID":"1997-051HS","EPOCH":"2026-03-28T12:42:05.321664","MEAN_MOTION":14.43221908,"ECCENTRICITY":0.0006617,"INCLINATION":86.3781,"RA_OF_ASC_NODE":1.6871,"ARG_OF_PERICENTER":94.7638,"MEAN_ANOMALY":86.6007,"EPHEMERIS_TYPE":0,"CLASSIFICATION_TYPE":"U","NORAD_CAT_ID":34525,"ELEMENT_SET_NO":999,"REV_AT_EPOCH":89613,"BSTAR":0.00035261,"MEAN_MOTION_DOT":1.205e-5,"MEAN_MOTION_DDOT":0},{"OBJECT_NAME":"IRIDIUM 33 DEB","OBJECT_ID":"1997-051HW","EPOCH":"2026-03-28T04:52:16.101696","MEAN_MOTION":14.40762825,"ECCENTRICITY":0.00038556,"INCLINATION":86.3688,"RA_OF_ASC_NODE":350.4675,"ARG_OF_PERICENTER":190.6524,"MEAN_ANOMALY":169.4594,"EPHEMERIS_TYPE":0,"CLASSIFICATION_TYPE":"U","NORAD_CAT_ID":34529,"ELEMENT_SET_NO":999,"REV_AT_EPOCH":89660,"BSTAR":0.0001979133,"MEAN_MOTION_DOT":6.52e-6,"MEAN_MOTION_DDOT":0},{"OBJECT_NAME":"IRIDIUM 33 DEB","OBJECT_ID":"1997-051JF","EPOCH":"2026-03-28T02:12:38.811168","MEAN_MOTION":14.43368548,"ECCENTRICITY":0.00340667,"INCLINATION":86.2767,"RA_OF_ASC_NODE":319.407,"ARG_OF_PERICENTER":340.2702,"MEAN_ANOMALY":172.2654,"EPHEMERIS_TYPE":0,"CLASSIFICATION_TYPE":"U","NORAD_CAT_ID":34538,"ELEMENT_SET_NO":999,"REV_AT_EPOCH":89275,"BSTAR":0.0005944034,"MEAN_MOTION_DOT":2.038e-5,"MEAN_MOTION_DDOT":0},{"OBJECT_NAME":"IRIDIUM 33 DEB","OBJECT_ID":"1997-051JH","EPOCH":"2026-03-28T10:36:44.015904","MEAN_MOTION":14.77803246,"ECCENTRICITY":0.0016903,"INCLINATION":86.3053,"RA_OF_ASC_NODE":259.1654,"ARG_OF_PERICENTER":157.5511,"MEAN_ANOMALY":232.2297,"EPHEMERIS_TYPE":0,"CLASSIFICATION_TYPE":"U","NORAD_CAT_ID":34540,"ELEMENT_SET_NO":999,"REV_AT_EPOCH":90581,"BSTAR":0.0017472483,"MEAN_MOTION_DOT":0.00012609,"MEAN_MOTION_DDOT":0},{"OBJECT_NAME":"IRIDIUM 33 DEB","OBJECT_ID":"1997-051JZ","EPOCH":"2026-03-28T08:46:43.909536","MEAN_MOTION":14.13641809,"ECCENTRICITY":0.01732322,"INCLINATION":86.3915,"RA_OF_ASC_NODE":239.2222,"ARG_OF_PERICENTER":324.2874,"MEAN_ANOMALY":34.682,"EPHEMERIS_TYPE":0,"CLASSIFICATION_TYPE":"U","NORAD_CAT_ID":34648,"ELEMENT_SET_NO":999,"REV_AT_EPOCH":86452,"BSTAR":0.002930093,"MEAN_MOTION_DOT":6.397e-5,"MEAN_MOTION_DDOT":0},{"OBJECT_NAME":"IRIDIUM 33 DEB","OBJECT_ID":"1997-051KC","EPOCH":"2026-03-27T00:55:34.046400","MEAN_MOTION":14.27506024,"ECCENTRICITY":0.01325212,"INCLINATION":86.2772,"RA_OF_ASC_NODE":96.1096,"ARG_OF_PERICENTER":226.988,"MEAN_ANOMALY":132.0149,"EPHEMERIS_TYPE":0,"CLASSIFICATION_TYPE":"U","NORAD_CAT_ID":34651,"ELEMENT_SET_NO":999,"REV_AT_EPOCH":87383,"BSTAR":0.0021283235,"MEAN_MOTION_DOT":5.759e-5,"MEAN_MOTION_DDOT":0},{"OBJECT_NAME":"IRIDIUM 33 DEB","OBJECT_ID":"1997-051KD","EPOCH":"2026-03-28T08:06:56.784672","MEAN_MOTION":14.63104095,"ECCENTRICITY":0.00258481,"INCLINATION":86.3271,"RA_OF_ASC_NODE":292.9522,"ARG_OF_PERICENTER":297.832,"MEAN_ANOMALY":241.3516,"EPHEMERIS_TYPE":0,"CLASSIFICATION_TYPE":"U","NORAD_CAT_ID":34652,"ELEMENT_SET_NO":999,"REV_AT_EPOCH":90027,"BSTAR":0.00070792179,"MEAN_MOTION_DOT":3.674e-5,"MEAN_MOTION_DDOT":0},{"OBJECT_NAME":"IRIDIUM 33 DEB","OBJECT_ID":"1997-051KM","EPOCH":"2026-03-28T11:32:01.609152","MEAN_MOTION":14.55537668,"ECCENTRICITY":0.00114139,"INCLINATION":86.3817,"RA_OF_ASC_NODE":351.0303,"ARG_OF_PERICENTER":28.7661,"MEAN_ANOMALY":147.798,"EPHEMERIS_TYPE":0,"CLASSIFICATION_TYPE":"U","NORAD_CAT_ID":34690,"ELEMENT_SET_NO":999,"REV_AT_EPOCH":89632,"BSTAR":0.00044040182,"MEAN_MOTION_DOT":1.94e-5,"MEAN_MOTION_DDOT":0},{"OBJECT_NAME":"IRIDIUM 33 DEB","OBJECT_ID":"1997-051KT","EPOCH":"2026-03-28T04:41:52.404288","MEAN_MOTION":14.73487786,"ECCENTRICITY":0.00580005,"INCLINATION":86.1814,"RA_OF_ASC_NODE":338.1264,"ARG_OF_PERICENTER":162.0447,"MEAN_ANOMALY":327.2639,"EPHEMERIS_TYPE":0,"CLASSIFICATION_TYPE":"U","NORAD_CAT_ID":34696,"ELEMENT_SET_NO":999,"REV_AT_EPOCH":88221,"BSTAR":0.0047434897,"MEAN_MOTION_DOT":0.00031772,"MEAN_MOTION_DDOT":0},{"OBJECT_NAME":"IRIDIUM 33 DEB","OBJECT_ID":"1997-051LJ","EPOCH":"2026-03-28T05:22:02.648928","MEAN_MOTION":14.4080154,"ECCENTRICITY":0.001439,"INCLINATION":86.3436,"RA_OF_ASC_NODE":347.5056,"ARG_OF_PERICENTER":227.0174,"MEAN_ANOMALY":264.1372,"EPHEMERIS_TYPE":0,"CLASSIFICATION_TYPE":"U","NORAD_CAT_ID":34765,"ELEMENT_SET_NO":999,"REV_AT_EPOCH":89132,"BSTAR":0.00036918,"MEAN_MOTION_DOT":1.202e-5,"MEAN_MOTION_DDOT":0},{"OBJECT_NAME":"IRIDIUM 33 DEB","OBJECT_ID":"1997-051MH","EPOCH":"2026-03-28T12:04:09.420384","MEAN_MOTION":14.5316889,"ECCENTRICITY":0.0021768,"INCLINATION":86.3983,"RA_OF_ASC_NODE":5.3893,"ARG_OF_PERICENTER":99.3878,"MEAN_ANOMALY":78.4393,"EPHEMERIS_TYPE":0,"CLASSIFICATION_TYPE":"U","NORAD_CAT_ID":34833,"ELEMENT_SET_NO":999,"REV_AT_EPOCH":89250,"BSTAR":0.00079576,"MEAN_MOTION_DOT":3.325e-5,"MEAN_MOTION_DDOT":0}]
