IRIDIUM 33 DEB          
1 34487U 97051GC  26087.39528560  .00000617  00000+0  17577-3 0  9992
2 34487  86.3447 326.9124 0032168 138.0659  39.8069 14.43403487897725
IRIDIUM 33 DEB          
1 34492U 97051GH  26087.32039471  .00006939  00000+0  23385-2 0  9995
2 34492  86.4698 291.8742 0181058 258.6964 227.3140 14.28060849865641
IRIDIUM 33 DEB          
1 34497U 97051GN  26087.22302490  .00002078  00000+0  80484-3 0  9997
2 34497  86.2831   7.3279 0080189   0.0866 152.3883 14.27864199883887
IRIDIUM 33 DEB          
1 34508U 97051GZ  26087.38510708  .00003003  00000+0  94013-3 0  9992
2 34508  86.3683  57.7902 0063200 184.2888 175.7778 14.39246510888287
IRIDIUM 33 DEB          
1 34521U 97051HN  26087.44507409  .00006412  00000+0  11950-2 0  9993
2 34521  86.3823 343.9690 0001212 307.3782  52.7321 14.64918972900197
IRIDIUM 33 DEB          
1 34525U 97051HS  26087.52922826  .00001205  00000+0  35261-3 0  9997
2 34525  86.3781   1.6871 0006617  94.7638  86.6007 14.43221908896132
IRIDIUM 33 DEB          
1 34529U 97051HW  26087.20296414  .00000652  00000+0  19791-3 0  9998
2 34529  86.3688 350.4675 0003855 190.6524 169.4594 14.40762825896608
IRIDIUM 33 DEB          
1 34538U 97051JF  26087.09211587  .00002038  00000+0  59440-3 0  9998
2 34538  86.2767 319.4070 0034066 340.2702 172.2654 14.43368548892756
IRIDIUM 33 DEB          
1 34540U 97051JH  26087.44217611  .00012609  00000+0  17472-2 0  9997
2 34540  86.3053 259.1654 0016903 157.5511 232.2297 14.77803246905811
IRIDIUM 33 DEB          
1 34648U 97051JZ  26087.36578599  .00006397  00000+0  29301-2 0  9993
2 34648  86.3915 239.2222 0173232 324.2874  34.6820 14.13641809864524
IRIDIUM 33 DEB          
1 34651U 97051KC  26086.03858850  .00005759  00000+0  21283-2 0  9993
2 34651  86.2772  96.1096 0132521 226.9880 132.0149 14.27506024873833
IRIDIUM 33 DEB          
1 34652U 97051KD  26087.33815723  .00003674  00000+0  70792-3 0  9994
2 34652  86.3271 292.9522 0025848 297.8320 241.3516 14.63104095900271
IRIDIUM 33 DEB          
1 34690U 97051KM  26087.48057418  .00001940  00000+0  44040-3 0  9992
2 34690  86.3817 351.0303 0011413  28.7661 147.7980 14.55537668896326
IRIDIUM 33 DEB          
1 34696U 97051KT  26087.19574542  .00031772  00000+0  47435-2 0  9994
2 34696  86.1814 338.1264 0058000 162.0447 327.2639 14.73487786882210
IRIDIUM 33 DEB          
1 34765U 97051LJ  26087.22364177  .00001202  00000+0  36918-3 0  9996
2 34765  86.3436 347.5056 0014390 227.0174 264.1372 14.40801540891322
IRIDIUM 33 DEB          
1 34833U 97051MH  26087.50288681  .00003325  00000+0  79576-3 0  9993
2 34833  86.3983   5.3893 0021768  99.3878  78.4393 14.53168890892509
